[{"OBJECT_NAME":"YAOGAN-14","OBJECT_ID":"2012-021A","EPOCH":"2026-03-09T23:13:16.463424","MEAN_MOTION":15.26486019,"ECCENTRICITY":0.00056417,"INCLINATION":97.2863,"RA_OF_ASC_NODE":208.4378,"ARG_OF_PERICENTER":161.6562,"MEAN_ANOMALY":198.4882,"EPHEMERIS_TYPE":0,"CLASSIFICATION_TYPE":"U","NORAD_CAT_ID":38257,"ELEMENT_SET_NO":999,"REV_AT_EPOCH":77067,"BSTAR":0.00037795498,"MEAN_MOTION_DOT":9.798e-5,"MEAN_MOTION_DDOT":0},{"OBJECT_NAME":"STARLINK-36469","OBJECT_ID":"2026-003AC","EPOCH":"2026-03-09T10:54:22.152384","MEAN_MOTION":15.27651087,"ECCENTRICITY":0.00012926,"INCLINATION":43.0002,"RA_OF_ASC_NODE":228.7601,"ARG_OF_PERICENTER":271.6538,"MEAN_ANOMALY":88.4165,"EPHEMERIS_TYPE":0,"CLASSIFICATION_TYPE":"U","NORAD_CAT_ID":67360,"ELEMENT_SET_NO":999,"REV_AT_EPOCH":878,"BSTAR":0.0016721967,"MEAN_MOTION_DOT":0.00046142,"MEAN_MOTION_DDOT":0}]
